[{"OBJECT_NAME":"STARLINK-4035","OBJECT_ID":"2022-053AL","EPOCH":"2026-03-09T12:48:49.519872","MEAN_MOTION":15.08843322,"ECCENTRICITY":0.00014308,"INCLINATION":53.2171,"RA_OF_ASC_NODE":144.8198,"ARG_OF_PERICENTER":81.5043,"MEAN_ANOMALY":278.6111,"EPHEMERIS_TYPE":0,"CLASSIFICATION_TYPE":"U","NORAD_CAT_ID":52690,"ELEMENT_SET_NO":999,"REV_AT_EPOCH":21109,"BSTAR":5.4925046e-5,"MEAN_MOTION_DOT":5.86e-6,"MEAN_MOTION_DDOT":0},{"OBJECT_NAME":"UNKNOWN","OBJECT_ID":"","EPOCH":"2026-03-09T06:54:16.920576","MEAN_MOTION":14.16736547,"ECCENTRICITY":0.0425292,"INCLINATION":65.6395,"RA_OF_ASC_NODE":176.1827,"ARG_OF_PERICENTER":77.7512,"MEAN_ANOMALY":316.077,"EPHEMERIS_TYPE":0,"CLASSIFICATION_TYPE":"U","NORAD_CAT_ID":87245,"ELEMENT_SET_NO":999,"REV_AT_EPOCH":62646,"BSTAR":0.00096148,"MEAN_MOTION_DOT":4.608e-5,"MEAN_MOTION_DDOT":0}]
